{"type": "FeatureCollection", "features": [ {"type": "Feature", "properties": {"norad_id": 44476, "name": "INTELSAT 39 (IS-39)", "group": "intelsat", "lat": 0.025793941586396682, "lon": 48.55842410946836, "alt_km": 35787.57610593109, "timestamp": "2025-12-24T16:52:41.169021+00:00", "meta": {"OBJECT_NAME": "INTELSAT 39 (IS-39)", "OBJECT_ID": "2019-049B", "EPOCH": "2025-12-24T04:50:07.636128", "MEAN_MOTION": 1.00269084, "ECCENTRICITY": 0.00011052, "INCLINATION": 0.0204, "RA_OF_ASC_NODE": 11.2429, "ARG_OF_PERICENTER": 137.1016, "MEAN_ANOMALY": 79.1033, "EPHEMERIS_TYPE": 0, "CLASSIFICATION_TYPE": "U", "NORAD_CAT_ID": 44476, "ELEMENT_SET_NO": 999, "REV_AT_EPOCH": 2337, "BSTAR": 0, "MEAN_MOTION_DOT": 0, "MEAN_MOTION_DDOT": 0}, "tle": {"line1": "1 44476U 19049B   25358.20147727  .00000000  00000+0  00000+0 0  9999", "line2": "2 44476   0.0204  11.2429 0001105 137.1016  79.1033  1.00269084 23376"}}, "geometry": {"type": "Point", "coordinates": [48.55842410946836, 0.025793941586396682]}}, {"type": "Feature", "properties": {"norad_id": 46114, "name": "GALAXY 30 (G-30)", "group": "intelsat", "lat": -0.02378666216257039, "lon": -138.38173174232733, "alt_km": 35780.596817641475, "timestamp": "2025-12-24T16:52:41.169033+00:00", "meta": {"OBJECT_NAME": "GALAXY 30 (G-30)", "OBJECT_ID": "2020-056C", "EPOCH": "2025-12-24T05:57:38.851776", "MEAN_MOTION": 1.00271057, "ECCENTRICITY": 0.00021028, "INCLINATION": 0.014, "RA_OF_ASC_NODE": 325.0857, "ARG_OF_PERICENTER": 306.9957, "MEAN_ANOMALY": 145.3551, "EPHEMERIS_TYPE": 0, "CLASSIFICATION_TYPE": "U", "NORAD_CAT_ID": 46114, "ELEMENT_SET_NO": 999, "REV_AT_EPOCH": 1953, "BSTAR": 0, "MEAN_MOTION_DOT": 5.8e-07, "MEAN_MOTION_DDOT": 0}, "tle": {"line1": "1 46114U 20056C   25358.24836634  .00000058  00000+0  00000+0 0  9999", "line2": "2 46114   0.0140 325.0857 0002102 306.9957 145.3551  1.00271057 19532"}}, "geometry": {"type": "Point", "coordinates": [-138.38173174232733, -0.02378666216257039]}}, {"type": "Feature", "properties": {"norad_id": 54026, "name": "GALAXY 33 (G-33)", "group": "intelsat", "lat": -0.018864699308777506, "lon": -146.36907634761621, "alt_km": 35781.65106133023, "timestamp": "2025-12-24T16:52:41.169046+00:00", "meta": {"OBJECT_NAME": "GALAXY 33 (G-33)", "OBJECT_ID": "2022-128A", "EPOCH": "2025-12-24T04:31:51.326400", "MEAN_MOTION": 1.00272122, "ECCENTRICITY": 0.0001643, "INCLINATION": 0.0126, "RA_OF_ASC_NODE": 315.9231, "ARG_OF_PERICENTER": 309.5058, "MEAN_ANOMALY": 122.5078, "EPHEMERIS_TYPE": 0, "CLASSIFICATION_TYPE": "U", "NORAD_CAT_ID": 54026, "ELEMENT_SET_NO": 999, "REV_AT_EPOCH": 1198, "BSTAR": 0, "MEAN_MOTION_DOT": 1e-06, "MEAN_MOTION_DDOT": 0}, "tle": {"line1": "1 54026U 22128A   25358.18878850  .00000100  00000+0  00000+0 0  9999", "line2": "2 54026   0.0126 315.9231 0001643 309.5058 122.5078  1.00272122 11987"}}, "geometry": {"type": "Point", "coordinates": [-146.36907634761621, -0.018864699308777506]}}, {"type": "Feature", "properties": {"norad_id": 54027, "name": "GALAXY 34 (G-34)", "group": "intelsat", "lat": -0.025926122893322044, "lon": -142.33594300591014, "alt_km": 35781.534132748995, "timestamp": "2025-12-24T16:52:41.169058+00:00", "meta": {"OBJECT_NAME": "GALAXY 34 (G-34)", "OBJECT_ID": "2022-128B", "EPOCH": "2025-12-24T06:22:23.360160", "MEAN_MOTION": 1.00269724, "ECCENTRICITY": 0.00018252, "INCLINATION": 0.0222, "RA_OF_ASC_NODE": 355.4296, "ARG_OF_PERICENTER": 270.8964, "MEAN_ANOMALY": 153.3579, "EPHEMERIS_TYPE": 0, "CLASSIFICATION_TYPE": "U", "NORAD_CAT_ID": 54027, "ELEMENT_SET_NO": 999, "REV_AT_EPOCH": 1215, "BSTAR": 0, "MEAN_MOTION_DOT": 0, "MEAN_MOTION_DDOT": 0}, "tle": {"line1": "1 54027U 22128B   25358.26554815  .00000000  00000+0  00000+0 0  9990", "line2": "2 54027   0.0222 355.4296 0001825 270.8964 153.3579  1.00269724 12155"}}, "geometry": {"type": "Point", "coordinates": [-142.33594300591014, -0.025926122893322044]}}, {"type": "Feature", "properties": {"norad_id": 54243, "name": "GALAXY 31 (G-31)", "group": "intelsat", "lat": -0.012385735042606021, "lon": -134.37939626856854, "alt_km": 35782.699316622726, "timestamp": "2025-12-24T16:52:41.169070+00:00", "meta": {"OBJECT_NAME": "GALAXY 31 (G-31)", "OBJECT_ID": "2022-153A", "EPOCH": "2025-12-23T15:58:50.418048", "MEAN_MOTION": 1.00271329, "ECCENTRICITY": 0.00014745, "INCLINATION": 0.0283, "RA_OF_ASC_NODE": 245.972, "ARG_OF_PERICENTER": 36.0828, "MEAN_ANOMALY": 289.1035, "EPHEMERIS_TYPE": 0, "CLASSIFICATION_TYPE": "U", "NORAD_CAT_ID": 54243, "ELEMENT_SET_NO": 999, "REV_AT_EPOCH": 537, "BSTAR": 0, "MEAN_MOTION_DOT": 3.4e-07, "MEAN_MOTION_DDOT": 0}, "tle": {"line1": "1 54243U 22153A   25357.66586132  .00000034  00000+0  00000+0 0  9995", "line2": "2 54243   0.0283 245.9720 0001474  36.0828 289.1035  1.00271329  5373"}}, "geometry": {"type": "Point", "coordinates": [-134.37939626856854, -0.012385735042606021]}}, {"type": "Feature", "properties": {"norad_id": 54244, "name": "GALAXY 32 (G-32)", "group": "intelsat", "lat": -0.02803350803967828, "lon": -104.38051664548769, "alt_km": 35782.0481972054, "timestamp": "2025-12-24T16:52:41.169081+00:00", "meta": {"OBJECT_NAME": "GALAXY 32 (G-32)", "OBJECT_ID": "2022-153B", "EPOCH": "2025-12-24T00:35:10.537728", "MEAN_MOTION": 1.00272312, "ECCENTRICITY": 0.00019036, "INCLINATION": 0.0096, "RA_OF_ASC_NODE": 16.5696, "ARG_OF_PERICENTER": 300.0291, "MEAN_ANOMALY": 53.9983, "EPHEMERIS_TYPE": 0, "CLASSIFICATION_TYPE": "U", "NORAD_CAT_ID": 54244, "ELEMENT_SET_NO": 999, "REV_AT_EPOCH": 1138, "BSTAR": 0, "MEAN_MOTION_DOT": -1.53e-06, "MEAN_MOTION_DDOT": 0}, "tle": {"line1": "1 54244U 22153B   25358.02442752 -.00000153  00000+0  00000+0 0  9999", "line2": "2 54244   0.0096  16.5696 0001903 300.0291  53.9983  1.00272312 11385"}}, "geometry": {"type": "Point", "coordinates": [-104.38051664548769, -0.02803350803967828]}}, {"type": "Feature", "properties": {"norad_id": 54741, "name": "GALAXY 35 (G-35)", "group": "intelsat", "lat": -0.01576161790098976, "lon": -106.4619222238404, "alt_km": 35777.28305565425, "timestamp": "2025-12-24T16:52:41.169094+00:00", "meta": {"OBJECT_NAME": "GALAXY 35 (G-35)", "OBJECT_ID": "2022-170A", "EPOCH": "2025-12-24T05:48:32.040000", "MEAN_MOTION": 1.00271455, "ECCENTRICITY": 0.00022713, "INCLINATION": 0.0302, "RA_OF_ASC_NODE": 247.2696, "ARG_OF_PERICENTER": 28.3062, "MEAN_ANOMALY": 171.4865, "EPHEMERIS_TYPE": 0, "CLASSIFICATION_TYPE": "U", "NORAD_CAT_ID": 54741, "ELEMENT_SET_NO": 999, "REV_AT_EPOCH": 1114, "BSTAR": 0, "MEAN_MOTION_DOT": -1.41e-06, "MEAN_MOTION_DDOT": 0}, "tle": {"line1": "1 54741U 22170A   25358.24203750 -.00000141  00000+0  00000+0 0  9994", "line2": "2 54741   0.0302 247.2696 0002271  28.3062 171.4865  1.00271455 11141"}}, "geometry": {"type": "Point", "coordinates": [-106.4619222238404, -0.01576161790098976]}}, {"type": "Feature", "properties": {"norad_id": 54742, "name": "GALAXY 36 (G-36)", "group": "intelsat", "lat": -0.015839678849720974, "lon": -102.35822899863817, "alt_km": 35785.96026614504, "timestamp": "2025-12-24T16:52:41.169106+00:00", "meta": {"OBJECT_NAME": "GALAXY 36 (G-36)", "OBJECT_ID": "2022-170B", "EPOCH": "2025-12-24T02:38:43.609344", "MEAN_MOTION": 1.00272435, "ECCENTRICITY": 3.583e-05, "INCLINATION": 0.0172, "RA_OF_ASC_NODE": 70.1558, "ARG_OF_PERICENTER": 278.5007, "MEAN_ANOMALY": 54.9201, "EPHEMERIS_TYPE": 0, "CLASSIFICATION_TYPE": "U", "NORAD_CAT_ID": 54742, "ELEMENT_SET_NO": 999, "REV_AT_EPOCH": 1101, "BSTAR": 0, "MEAN_MOTION_DOT": -1.64e-06, "MEAN_MOTION_DDOT": 0}, "tle": {"line1": "1 54742U 22170B   25358.11022696 -.00000164  00000+0  00000+0 0  9994", "line2": "2 54742   0.0172  70.1558 0000358 278.5007  54.9201  1.00272435 11013"}}, "geometry": {"type": "Point", "coordinates": [-102.35822899863817, -0.015839678849720974]}}, {"type": "Feature", "properties": {"norad_id": 57493, "name": "GALAXY 37 (G-37)", "group": "intelsat", "lat": -0.019173961065397534, "lon": -140.3893760783206, "alt_km": 35781.45429186623, "timestamp": "2025-12-24T16:52:41.169118+00:00", "meta": {"OBJECT_NAME": "GALAXY 37 (G-37)", "OBJECT_ID": "2023-112A", "EPOCH": "2025-12-24T06:12:26.382816", "MEAN_MOTION": 1.00271583, "ECCENTRICITY": 0.00020392, "INCLINATION": 0.0175, "RA_OF_ASC_NODE": 10.2824, "ARG_OF_PERICENTER": 266.718, "MEAN_ANOMALY": 142.1368, "EPHEMERIS_TYPE": 0, "CLASSIFICATION_TYPE": "U", "NORAD_CAT_ID": 57493, "ELEMENT_SET_NO": 999, "REV_AT_EPOCH": 878, "BSTAR": 0, "MEAN_MOTION_DOT": 6.9e-07, "MEAN_MOTION_DDOT": 0}, "tle": {"line1": "1 57493U 23112A   25358.25863869  .00000069  00000+0  00000+0 0  9990", "line2": "2 57493   0.0175  10.2824 0002039 266.7180 142.1368  1.00271583  8789"}}, "geometry": {"type": "Point", "coordinates": [-140.3893760783206, -0.019173961065397534]}}]}